STARLINK-2001           
1 47596U 21009BA  23062.94498466  .00022071  00000+0  14946-2 0  9993
2 47596  53.0538 307.5457 0001097  88.2045 271.9069 15.06433516115052
STARLINK-2002           
1 47597U 21009BB  23062.93761190  .00026011  00000+0  17571-2 0  9995
2 47597  53.0526 307.5814 0001471  83.8434 276.2723 15.06432878115051
STARLINK-2003           
1 47598U 21009BC  23062.88140021  .00008641  00000+0  59791-3 0  9994
2 47598  53.0522 277.8305 0001131  86.8700 273.2418 15.06423398114878
STARLINK-2004           
1 47599U 21009BD  23062.87126500  .00004623  00000+0  32891-3 0  9998
2 47599  53.0521 267.8721 0001121  84.9097 275.2020 15.06411124115007
STARLINK-2005           
1 47600U 21009BE  23062.83071679  .00013729  00000+0  93804-3 0  9991
2 47600  53.0532 268.0259 0001047  85.6996 274.4113 15.06427789115002
STARLINK-2006           
1 47601U 21009BF  23063.07398796  .00024277  00000+0  16418-2 0  9996
2 47601  53.0524 266.9567 0000716  76.4183 283.6885 15.06429664115643
STARLINK-2007           
1 47602U 21009BG  23063.02883750  .00011837  00000+0  81174-3 0  9991
2 47602  53.0516 277.1687 0001232  94.4285 265.6845 15.06421859115485
STARLINK-2008           
1 47603U 21009BH  23063.10715592  .00016472  00000+0  11209-2 0  9990
2 47603  53.0543 306.8187 0001215  97.6795 262.4332 15.06441731115075
STARLINK-2021           
1 47604U 21009BJ  23063.03620951  .00027274  00000+0  18412-2 0  9992
2 47604  53.0523 277.1356 0001051 142.7281 217.3781 15.06432399115495
STARLINK-2024           
1 47606U 21009BL  23063.10623885  .00024520  00000+0  16579-2 0  9994
2 47606  53.0526 276.8200 0000827  87.8603 272.2481 15.06431602115506
STARLINK-2025           
1 47607U 21009BM  23062.88509052  .00011542  00000+0  79197-3 0  9994
2 47607  53.0541 277.8282 0001304  98.5625 261.5512 15.06424761114861
FLOCK 4S-42             
1 47612U 21006EQ  23062.55133112  .00057430  00000+0  23564-2 0  9993
2 47612  97.4081 122.3380 0010254 105.3689 254.8681 15.23975065116593
TJS-6                   
1 47613U 21010A   23062.86769053  .00000037  00000+0  00000+0 0  9990
2 47613   0.0756 357.2179 0002553  12.5924 282.3359  1.00272182  7768
ARCE-1B                 
1 47615U 21006EG  23062.90243774  .00055833  00000+0  20205-2 0  9995
2 47615  97.4025 123.2508 0007367 102.1130 258.0935 15.28190314115793
ARCE-1A                 
1 47616U 21006EH  23062.89824509  .00057155  00000+0  21226-2 0  9998
2 47616  97.4028 123.2642 0007713 101.1805 259.0302 15.27327127116714
FLOCK 4S-48             
1 47617U 21006EJ  23063.11252959  .00029149  00000+0  11963-2 0  9998
2 47617  97.4066 122.9961 0010721  86.2207 274.0256 15.24129596117666
STARLINK-1528           
1 47620U 21012A   23063.03436072  .00038119  00000+0  25610-2 0  9991
2 47620  53.0538 337.1452 0001150 113.8859 246.2250 15.06445685113428
STARLINK-1609           
1 47621U 21012B   23063.15968063  .00024591  00000+0  16621-2 0  9996
2 47621  53.0569 336.5751 0001404 110.2863 249.8277 15.06442886113446
STARLINK-1645           
1 47622U 21012C   23063.15504204  .00015426  00000+0  10511-2 0  9999
2 47622  53.0538 336.5949 0000834  96.2736 263.8348 15.06440103113445
STARLINK-1655           
1 47623U 21012D   23062.90215117  .00020573  00000+0  13963-2 0  9997
2 47623  53.0509 272.7383 0000973  88.4422 271.6678 15.06392883114834
STARLINK-1669           
1 47624U 21012E   23063.09517874  .00032087  00000+0  21610-2 0  9995
2 47624  53.0532 316.8719 0000877 103.3936 256.7151 15.06438380113713
STARLINK-1704           
1 47625U 21012F   23063.02973215  .00029411  00000+0  19832-2 0  9994
2 47625  53.0565 337.1521 0001023  62.3945 297.7148 15.06436006113427
STARLINK-1761           
1 47626U 21012G   23063.01593238  .00027083  00000+0  18289-2 0  9995
2 47626  53.0540 337.2300 0001217 114.9902 245.1213 15.06423878113422
STARLINK-1972           
1 47627U 21012H   23062.96018653  .00006407  00000+0  44841-3 0  9993
2 47627  53.0511 242.4751 0000925  80.3052 279.8041 15.06417592114739
STARLINK-1973           
1 47628U 21012J   23062.78646151  .00018784  00000+0  12757-2 0  9995
2 47628  53.0543 338.2429 0001502 104.8600 255.2555 15.06424507113904
STARLINK-1974           
1 47629U 21012K   23062.43725009  .00012856  00000+0  87986-3 0  9999
2 47629  53.0497 219.8220 0000983  92.9209 267.1892 15.06422670115019
STARLINK-1983           
1 47630U 21012L   23063.12467466  .00012378  00000+0  84741-3 0  9993
2 47630  53.0541 316.8266 0001174  99.0418 261.0704 15.06444707113717
STARLINK-1992           
1 47632U 21012N   23062.78600508  .00003278  00000+0  23880-3 0  9998
2 47632  53.0508 243.2506 0001382  74.2416 285.8726 15.06410426115212
STARLINK-2009           
1 47633U 21012P   23063.07027672  .00013250  00000+0  90562-3 0  9999
2 47633  53.0531 337.0167 0001176 117.7859 242.3249 15.06444914113438
STARLINK-2010           
1 47634U 21012Q   23063.11176520  .00023387  00000+0  15824-2 0  9991
2 47634  53.0548 336.7999 0001297 103.9918 256.1215 15.06430941113434
STARLINK-2012           
1 47635U 21012R   23062.93807223  .00010324  00000+0  71058-3 0  9991
2 47635  53.0515 242.5752 0001262  94.8921 265.2212 15.06418930114730
STARLINK-2013           
1 47636U 21012S   23063.09886464  .00014884  00000+0  10151-2 0  9995
2 47636  53.0534 316.8564 0000929 105.7905 254.3187 15.06431640113711
STARLINK-2014           
1 47637U 21012T   23063.13572379  .00028384  00000+0  19144-2 0  9999
2 47637  53.0540 316.6918 0001116 109.7341 250.3768 15.06445461113725
STARLINK-2015           
1 47638U 21012U   23062.80169194  .00006774  00000+0  47299-3 0  9992
2 47638  53.0530 243.1818 0001054  92.6910 267.4200 15.06416503115212
STARLINK-2016           
1 47639U 21012V   23062.98092036  .00030078  00000+0  20277-2 0  9992
2 47639  53.0537 317.3890 0001381  99.1491 260.9654 15.06433368113692
STARLINK-2018           
1 47640U 21012W   23063.04173524  .00003369  00000+0  24495-3 0  9994
2 47640  53.0552 337.1099 0001250  83.7166 276.3966 15.06404815113428
STARLINK-2019           
1 47641U 21012X   23062.91964220  .00003365  00000+0  24462-3 0  9991
2 47641  53.0526 242.6487 0001226  73.1134 286.9989 15.06411392114737
STARLINK-2020           
1 47642U 21012Y   23063.04772104  .00024742  00000+0  16721-2 0  9995
2 47642  53.0557 332.0812 0001136 111.2017 248.9094 15.06443635113494
STARLINK-2022           
1 47643U 21012Z   23063.12834789  .00010860  00000+0  74601-3 0  9991
2 47643  53.0545 316.7174 0001421  93.1629 266.9523 15.06439871113715
STARLINK-2026           
1 47644U 21012AA  23063.14125061  .00031736  00000+0  21370-2 0  9999
2 47644  53.0542 336.6638 0001071 106.2795 253.8312 15.06449896113449
STARLINK-2027           
1 47645U 21012AB  23063.09612924  .00011651  00000+0  79913-3 0  9994
2 47645  53.0536 307.1103 0001211  83.0729 277.0398 15.06431247113845
STARLINK-2028           
1 47646U 21012AC  23062.88373630  .00008364  00000+0  57948-3 0  9990
2 47646  53.0531 273.0597 0000810  77.4708 282.6371 15.06413566114801
STARLINK-2030           
1 47647U 21012AD  23063.01964859  .00032741  00000+0  22073-2 0  9992
2 47647  53.0539 337.2046 0000559  44.0162 316.0871 15.06390651113429
STARLINK-2031           
1 47648U 21012AE  23063.07674682  .00013449  00000+0  91893-3 0  9992
2 47648  53.0538 316.9477 0001623 127.2676 232.8462 15.06444093113711
STARLINK-2032           
1 47649U 21012AF  23063.25001157 -.00009793  00000+0 -64006-3 0  9999
2 47649  53.0518 316.1801 0001199  64.8563 135.3942 15.06363678113744
STARLINK-2033           
1 47650U 21012AG  23062.93299978  .00006535  00000+0  45677-3 0  9997
2 47650  53.0540 317.6027 0001021 111.4452 248.6646 15.06432064113685
STARLINK-2035           
1 47651U 21012AH  23063.03805498  .00024530  00000+0  16589-2 0  9994
2 47651  53.0547 337.1713 0001073  87.0446 273.0666 15.06424301113421
STARLINK-2036           
1 47652U 21012AJ  23063.12650181  .00045343  00000+0  30401-2 0  9996
2 47652  53.0548 336.7302 0001248  84.5102 275.6030 15.06441150113432
STARLINK-2037           
1 47653U 21012AK  23063.12098034  .00023371  00000+0  15810-2 0  9994
2 47653  53.0533 316.7582 0001300  96.3451 263.7686 15.06440122113716
STARLINK-2038           
1 47654U 21012AL  23063.13019338  .00025585  00000+0  17285-2 0  9993
2 47654  53.0548 336.7105 0001472 113.1706 246.9439 15.06438501113433
STARLINK-2039           
1 47655U 21012AM  23063.05647640  .00040718  00000+0  27338-2 0  9993
2 47655  53.0542 337.0472 0001012  92.5010 267.6094 15.06439961113424
STARLINK-2040           
1 47656U 21012AN  23063.00671919  .00025348  00000+0  17129-2 0  9994
2 47656  53.0535 317.2702 0000973  98.8724 261.2375 15.06434705113691
STARLINK-2041           
1 47657U 21012AP  23063.07859124  .00044154  00000+0  29612-2 0  9994
2 47657  53.0538 336.9480 0001127 102.7672 257.3443 15.06442924113431
STARLINK-2042           
1 47658U 21012AQ  23063.07121957  .00034830  00000+0  23430-2 0  9993
2 47658  53.0539 336.9827 0001244  75.6898 284.4229 15.06441516113435
STARLINK-2043           
1 47659U 21012AR  23062.83163714  .00016774  00000+0  11412-2 0  9998
2 47659  53.0497 218.0507 0001412  76.8283 283.2863 15.06435721115065
STARLINK-2044           
1 47660U 21012AS  23062.78472530  .00002725  00000+0  20173-3 0  9999
2 47660  53.0528 208.8816 0001439  80.8970 279.2182 15.06404156115695
STARLINK-2051           
1 47661U 21012AT  23063.10255198  .00010809  00000+0  74306-3 0  9995
2 47661  53.0535 316.8334 0001161  83.6817 276.4304 15.06419623113713
STARLINK-2052           
1 47662U 21012AU  23062.81779635  .00028867  00000+0  19477-2 0  9990
2 47662  53.0533 318.1190 0001182 102.4426 257.6695 15.06423646114193
STARLINK-2053           
1 47663U 21012AV  23062.74874958  .00011183  00000+0  76830-3 0  9997
2 47663  53.0516 238.7410 0000833  79.4807 280.6276 15.06405817114770
